     2.100          NAVIGATION                              RINEX VERSION / TYPE
fic2rin                                 02/16/2015 00:18:43 PGM / RUN BY / DATE
                                                            END OF HEADER
 6 15  2 15  6  0  0.0  .823698937893D-04  .112549969344D-10  .000000000000D+00
     .790000000000D+02 -.181562500000D+02  .433196615806D-08 -.274479357866D+01
    -.102445483208D-05  .361204496585D-03  .104643404484D-04  .515370126534D+04
     .216000000000D+05  .931322574615D-08 -.179527712107D+00 -.428408384323D-07
     .962173108406D+00  .178968750000D+03  .265694318289D+01 -.785568436364D-08
     .321441960776D-09  .100000000000D+01  .183200000000D+04  .000000000000D+00
     .240000000000D+01  .000000000000D+00  .465661287308D-08  .790000000000D+02
     .144060000000D+05  .400000000000D+01
 7 15  2 15  6  0  0.0  .440390780568D-03  .318323145621D-11  .000000000000D+00
     .770000000000D+02  .101781250000D+03  .419588906134D-08  .441354237524D+00
     .539049506187D-05  .800051039550D-02  .878982245922D-05  .515373940277D+04
     .216000000000D+05  .353902578354D-07  .298904453459D+01  .109896063805D-06
     .971550230430D+00  .215968750000D+03 -.275406188738D+01 -.802819154926D-08
     .166792661870D-09  .100000000000D+01  .183200000000D+04  .000000000000D+00
     .240000000000D+01  .000000000000D+00 -.111758708954D-07  .770000000000D+02
     .144060000000D+05  .400000000000D+01
 8 15  2 15  6  0  0.0  .176923349500D-04  .227373675443D-12  .000000000000D+00
     .110000000000D+02  .122718750000D+03  .368658213237D-08  .197317170897D+01
     .632554292679D-05  .144081667531D-01  .807829201221D-05  .515356394196D+04
     .216000000000D+05 -.311061739922D-06  .309418593742D+01  .111758708954D-06
     .995137281405D+00  .237687500000D+03 -.269176401690D+01 -.781282543554D-08
     .238224208709D-09  .100000000000D+01  .183200000000D+04  .000000000000D+00
     .240000000000D+01  .630000000000D+02 -.512227416039D-08  .110000000000D+02
     .144060000000D+05  .400000000000D+01
 9 15  2 15  6  0  0.0 -.873287208378D-04 -.113686837722D-10  .000000000000D+00
     .190000000000D+02 -.446875000000D+01  .446947188573D-08  .284351166077D+01
    -.152736902237D-06  .348761561327D-03  .101830810308D-04  .515365367126D+04
     .216000000000D+05 -.856816768646D-07  .191364308390D+01 -.800937414169D-07
     .957928937288D+00  .182156250000D+03  .220408383637D+01 -.793961643118D-08
    -.511092717635D-09  .100000000000D+01  .183200000000D+04  .000000000000D+00
     .240000000000D+01  .000000000000D+00  .465661287308D-09  .190000000000D+02
     .144060000000D+05  .400000000000D+01
11 15  2 15  6  0  0.0 -.557981431484D-03 -.261479726760D-11  .000000000000D+00
     .780000000000D+02 -.559687500000D+02  .610811157022D-08  .508970981164D+00
    -.273063778877D-05  .155974744121D-01  .108871608973D-04  .515373078728D+04
     .216000000000D+05 -.169500708580D-06 -.514190539746D+00  .447034835815D-07
     .892707879998D+00  .137656250000D+03  .138219760535D+01 -.899251743159D-08
     .173935816553D-09  .100000000000D+01  .183200000000D+04  .000000000000D+00
     .240000000000D+01  .000000000000D+00 -.121071934700D-07  .780000000000D+02
     .144060000000D+05  .400000000000D+01
12 15  2 15  6  0  0.0  .269469339401D-03  .295585778076D-11  .000000000000D+00
     .710000000000D+02 -.387500000000D+01  .431553690229D-08 -.236309633873D-01
    -.143423676491D-06  .528139492963D-02  .246614217758D-05  .515373255348D+04
     .216000000000D+05  .409781932831D-07 -.222749432191D+01  .204890966415D-07
     .989149434821D+00  .349750000000D+03  .513017782690D+00 -.825534386821D-08
     .350014579512D-10  .100000000000D+01  .183200000000D+04  .000000000000D+00
     .240000000000D+01  .000000000000D+00 -.125728547573D-07  .710000000000D+02
     .144060000000D+05  .400000000000D+01
13 15  2 15  6  0  0.0 -.883592292666D-04 -.352429196937D-11  .000000000000D+00
     .390000000000D+02  .144062500000D+02  .404981154805D-08  .119022173459D+01
     .772997736931D-06  .533464539330D-02  .100191682577D-04  .515369021416D+04
     .216000000000D+05  .894069671631D-07  .202720861856D+01 -.819563865662D-07
     .974777805145D+00  .194625000000D+03  .206199028880D+01 -.781461122421D-08
    -.353586156854D-09  .100000000000D+01  .183200000000D+04  .000000000000D+00
     .240000000000D+01  .000000000000D+00 -.116415321827D-07  .390000000000D+02
     .144060000000D+05  .400000000000D+01
14 15  2 15  6  0  0.0  .872830860317D-04 -.352429196937D-11  .000000000000D+00
     .102000000000D+03  .235000000000D+02  .407374111624D-08  .302015537471D+01
     .119581818581D-05  .774266989902D-02  .107381492853D-04  .515378802872D+04
     .216000000000D+05  .633299350739D-07  .199328600893D+01 -.838190317154D-07
     .967257152497D+00  .173843750000D+03 -.197036122390D+01 -.761103131572D-08
    -.415374444870D-09  .100000000000D+01  .183200000000D+04  .000000000000D+00
     .240000000000D+01  .000000000000D+00 -.931322574615D-08  .102000000000D+03
     .144060000000D+05  .400000000000D+01
15 15  2 15  6  0  0.0 -.232368707657D-03 -.227373675443D-11  .000000000000D+00
     .112000000000D+03 -.193750000000D+01  .506199656676D-08  .238603980231D+01
    -.987201929092D-07  .709478103090D-02  .932998955250D-05  .515359508514D+04
     .216000000000D+05 -.819563865662D-07  .187249982223D+01  .000000000000D+00
     .933828529341D+00  .186906250000D+03  .374279038361D+00 -.822105672573D-08
    -.449304429619D-09  .100000000000D+01  .183200000000D+04  .000000000000D+00
     .240000000000D+01  .000000000000D+00 -.107102096081D-07  .112000000000D+03
     .144060000000D+05  .400000000000D+01
16 15  2 15  6  0  0.0 -.156191643327D-03  .329691829393D-11  .000000000000D+00
     .860000000000D+02 -.871875000000D+01  .429910764652D-08 -.215511740376D+01
    -.648200511932D-06  .806553836446D-02  .220164656639D-05  .515374496841D+04
     .216000000000D+05 -.130385160446D-07 -.220884290491D+01 -.137835741043D-06
     .989697097222D+00  .354593750000D+03  .239754690379D+00 -.822462830307D-08
     .108218793461D-09  .100000000000D+01  .183200000000D+04  .000000000000D+00
     .240000000000D+01  .000000000000D+00 -.102445483208D-07  .860000000000D+02
     .144060000000D+05  .400000000000D+01
18 15  2 15  6  0  0.0  .379682518542D-03  .272848410532D-11  .000000000000D+00
     .220000000000D+02  .521875000000D+01  .563630620335D-08 -.159143821939D+01
     .355765223503D-06  .157042351784D-01  .549480319023D-05  .515374889755D+04
     .216000000000D+05  .404193997383D-06  .852485245844D+00  .150874257088D-06
     .925149247037D+00  .252781250000D+03 -.199009927597D+01 -.846463830045D-08
    -.510735559900D-10  .100000000000D+01  .183200000000D+04  .000000000000D+00
     .240000000000D+01  .000000000000D+00 -.111758708954D-07  .220000000000D+02
     .144060000000D+05  .400000000000D+01
19 15  2 15  6  0  0.0 -.500607769936D-03 -.136424205266D-11  .000000000000D+00
     .140000000000D+02 -.128281250000D+03  .424839124826D-08  .239516554234D+01
    -.661425292492D-05  .109364062082D-01  .874139368534D-05  .515370517349D+04
     .216000000000D+05 -.214204192162D-06 -.113035012691D+01 -.109896063805D-06
     .968359252073D+00  .217343750000D+03  .518594234766D+00 -.789282876800D-08
    -.122147945095D-09  .100000000000D+01  .183200000000D+04  .000000000000D+00
     .240000000000D+01  .000000000000D+00 -.149011611938D-07  .140000000000D+02
     .144060000000D+05  .400000000000D+01
20 15  2 15  6  0  0.0  .289889052510D-03  .409272615798D-11  .000000000000D+00
     .840000000000D+02  .115937500000D+02  .559237580204D-08 -.184165281207D+01
     .616535544395D-06  .582507485524D-02  .558793544769D-05  .515576129532D+04
     .216000000000D+05  .134110450745D-06  .799785241488D+00  .223517417908D-07
     .926356517256D+00  .253281250000D+03  .123534918196D+01 -.851964059151D-08
     .717887045734D-10  .100000000000D+01  .183200000000D+04  .000000000000D+00
     .240000000000D+01  .000000000000D+00 -.838190317154D-08  .840000000000D+02
     .144060000000D+05  .400000000000D+01
21 15  2 15  6  0  0.0 -.416810624301D-03 -.409272615798D-11  .000000000000D+00
     .860000000000D+02  .125000000000D+00  .526557647525D-08 -.573229432507D+00
     .104308128357D-06  .222162826685D-01  .101160258055D-04  .515361266899D+04
     .216000000000D+05 -.193715095520D-06 -.190976991758D+00  .294297933578D-06
     .933897296731D+00  .173000000000D+03 -.194779943712D+01 -.873964975578D-08
     .402159608705D-09  .100000000000D+01  .183200000000D+04  .000000000000D+00
     .340000000000D+01  .000000000000D+00 -.116415321827D-07  .860000000000D+02
     .144060000000D+05  .400000000000D+01
22 15  2 15  6  0  0.0  .318452715874D-03  .409272615798D-11  .000000000000D+00
     .800000000000D+02  .471875000000D+01  .565630703646D-08 -.206753831053D+01
     .162050127983D-06  .747337436769D-02  .567175447941D-05  .515369058228D+04
     .216000000000D+05  .987201929092D-07  .853849210681D+00 -.102445483208D-06
     .922952026005D+00  .249468750000D+03 -.206768104305D+01 -.844285167866D-08
     .571452374714D-11  .100000000000D+01  .183200000000D+04  .000000000000D+00
     .240000000000D+01  .000000000000D+00 -.176951289177D-07  .800000000000D+02
     .144060000000D+05  .400000000000D+01
23 15  2 15  6  0  0.0 -.888770446181D-04 -.261479726760D-11  .000000000000D+00
     .720000000000D+02 -.378125000000D+01  .471126767178D-08  .195109206780D+01
    -.117346644402D-06  .976279040333D-02  .104401260614D-04  .515366497040D+04
     .216000000000D+05 -.199303030968D-06  .192318761495D+01  .316649675369D-07
     .948986329730D+00  .174031250000D+03 -.271148758315D+01 -.810533761985D-08
    -.578238371663D-09  .100000000000D+01  .183200000000D+04  .000000000000D+00
     .240000000000D+01  .000000000000D+00 -.200234353542D-07  .720000000000D+02
     .144060000000D+05  .400000000000D+01
